start=new Date('2023-03-07T00:00:00.000Z').valueOf();
sats=[{"PERIAPSIS":"438.340","MEAN_MOTION_DDOT":"0.0000000000000","CLASSIFICATION_TYPE":"U","LAUNCH_DATE":"2020-09-03","EPOCH":"2023-03-06T16:21:36.250848","MEAN_MOTION":"15.42423154","MEAN_ELEMENT_THEORY":"SGP4","TLE_LINE1":"1 46346U 20062X   23065.68166957  .00065740  00000-0  14939-2 0  9997","DECAY_DATE":null,"SITE":"AFETR","ARG_OF_PERICENTER":"283.1709","OBJECT_TYPE":"PAYLOAD","INCLINATION":"53.0581","MEAN_MOTION_DOT":"0.00065740","EPHEMERIS_TYPE":"0","REF_FRAME":"TEME","ECCENTRICITY":"0.00009130","OBJECT_ID":"2020-062X","BSTAR":"0.00149390000000","RCS_SIZE":"LARGE","TIME_SYSTEM":"UTC","PERIOD":"93.360","TLE_LINE2":"2 46346  53.0581  59.7093 0000913 283.1709  76.9194 15.42423154141646","MEAN_ANOMALY":"76.9194","GP_ID":"227623949","SEMIMAJOR_AXIS":"6817.097","FILE":"3853141","CENTER_NAME":"EARTH","APOAPSIS":"439.585","NORAD_CAT_ID":"46346","OBJECT_NAME":"STARLINK-1546","ELEMENT_SET_NO":"999","COUNTRY_CODE":"US","REV_AT_EPOCH":"14164","RA_OF_ASC_NODE":"59.7093"},{"MEAN_ANOMALY":"290.7591","GP_ID":"227598506","FILE":"3852887","SEMIMAJOR_AXIS":"6925.364","NORAD_CAT_ID":"46347","APOAPSIS":"548.233","CENTER_NAME":"EARTH","OBJECT_ID":"2020-062Y","BSTAR":"0.00020074000000","TIME_SYSTEM":"UTC","RCS_SIZE":"LARGE","TLE_LINE2":"2 46347  53.0512 224.5087 0001450  69.3553 290.7591 15.06394881139495","PERIOD":"95.592","COUNTRY_CODE":"US","REV_AT_EPOCH":"13949","RA_OF_ASC_NODE":"224.5087","OBJECT_NAME":"STARLINK-1547","ELEMENT_SET_NO":"999","MEAN_MOTION_DDOT":"0.0000000000000","CLASSIFICATION_TYPE":"U","LAUNCH_DATE":"2020-09-03","PERIAPSIS":"546.225","INCLINATION":"53.0512","MEAN_MOTION_DOT":"0.00002709","OBJECT_TYPE":"PAYLOAD","EPHEMERIS_TYPE":"0","ECCENTRICITY":"0.00014500","REF_FRAME":"TEME","MEAN_MOTION":"15.06394881","MEAN_ELEMENT_THEORY":"SGP4","EPOCH":"2023-03-06T20:21:58.486176","TLE_LINE1":"1 46347U 20062Y   23065.84859359  .00002709  00000-0  20074-3 0  9995","SITE":"AFETR","DECAY_DATE":null,"ARG_OF_PERICENTER":"69.3553"},{"ELEMENT_SET_NO":"999","OBJECT_NAME":"STARLINK-1553","RA_OF_ASC_NODE":"249.6105","REV_AT_EPOCH":"13896","COUNTRY_CODE":"US","TLE_LINE2":"2 46348  53.0522 249.6105 0001024  82.1107 277.9999 15.06405986138960","PERIOD":"95.592","TIME_SYSTEM":"UTC","RCS_SIZE":"LARGE","BSTAR":"0.00035183000000","OBJECT_ID":"2020-062Z","NORAD_CAT_ID":"46348","CENTER_NAME":"EARTH","APOAPSIS":"547.904","FILE":"3853141","SEMIMAJOR_AXIS":"6925.330","GP_ID":"227622949","MEAN_ANOMALY":"277.9999","ARG_OF_PERICENTER":"82.1107","DECAY_DATE":null,"SITE":"AFETR","TLE_LINE1":"1 46348U 20062Z   23065.82600912  .00004964  00000-0  35183-3 0  9995","MEAN_MOTION":"15.06405986","EPOCH":"2023-03-06T19:49:27.187968","MEAN_ELEMENT_THEORY":"SGP4","ECCENTRICITY":"0.00010240","REF_FRAME":"TEME","EPHEMERIS_TYPE":"0","INCLINATION":"53.0522","MEAN_MOTION_DOT":"0.00004964","OBJECT_TYPE":"PAYLOAD","PERIAPSIS":"546.486","LAUNCH_DATE":"2020-09-03","CLASSIFICATION_TYPE":"U","MEAN_MOTION_DDOT":"0.0000000000000"},{"OBJECT_NAME":"STARLINK-1575","ELEMENT_SET_NO":"999","COUNTRY_CODE":"US","REV_AT_EPOCH":"13949","RA_OF_ASC_NODE":"224.6223","BSTAR":"-0.00000945580000","OBJECT_ID":"2020-062AA","PERIOD":"95.592","TLE_LINE2":"2 46349  53.0538 224.6223 0001569  72.0401 288.0759 15.06394467139498","RCS_SIZE":"LARGE","TIME_SYSTEM":"UTC","GP_ID":"227598729","MEAN_ANOMALY":"288.0759","CENTER_NAME":"EARTH","APOAPSIS":"548.317","NORAD_CAT_ID":"46349","SEMIMAJOR_AXIS":"6925.366","FILE":"3852886","TLE_LINE1":"1 46349U 20062AA  23065.82278447 -.00000422  00000-0 -94558-5 0  9990","MEAN_MOTION":"15.06394467","MEAN_ELEMENT_THEORY":"SGP4","EPOCH":"2023-03-06T19:44:48.578208","ARG_OF_PERICENTER":"72.0401","SITE":"AFETR","DECAY_DATE":null,"EPHEMERIS_TYPE":"0","OBJECT_TYPE":"PAYLOAD","INCLINATION":"53.0538","MEAN_MOTION_DOT":"-0.00000422","ECCENTRICITY":"0.00015690","REF_FRAME":"TEME","PERIAPSIS":"546.144","CLASSIFICATION_TYPE":"U","LAUNCH_DATE":"2020-09-03","MEAN_MOTION_DDOT":"0.0000000000000"},{"OBJECT_NAME":"STARLINK-1617","ELEMENT_SET_NO":"999","REV_AT_EPOCH":"13887","COUNTRY_CODE":"US","RA_OF_ASC_NODE":"269.4814","BSTAR":"0.00032047000000","OBJECT_ID":"2020-062AB","TLE_LINE2":"2 46350  53.0508 269.4814 0000967  90.7254 269.3846 15.06404441138878","PERIOD":"95.592","TIME_SYSTEM":"UTC","RCS_SIZE":"LARGE","GP_ID":"227599211","MEAN_ANOMALY":"269.3846","NORAD_CAT_ID":"46350","CENTER_NAME":"EARTH","APOAPSIS":"547.870","FILE":"3852898","SEMIMAJOR_AXIS":"6925.335","TLE_LINE1":"1 46350U 20062AB  23065.85365520  .00004496  00000-0  32047-3 0  9990","EPOCH":"2023-03-06T20:29:15.809280","MEAN_MOTION":"15.06404441","MEAN_ELEMENT_THEORY":"SGP4","ARG_OF_PERICENTER":"90.7254","SITE":"AFETR","DECAY_DATE":null,"EPHEMERIS_TYPE":"0","MEAN_MOTION_DOT":"0.00004496","INCLINATION":"53.0508","OBJECT_TYPE":"PAYLOAD","REF_FRAME":"TEME","ECCENTRICITY":"0.00009670","PERIAPSIS":"546.530","LAUNCH_DATE":"2020-09-03","CLASSIFICATION_TYPE":"U","MEAN_MOTION_DDOT":"0.0000000000000"},{"SEMIMAJOR_AXIS":"6925.330","FILE":"3853141","CENTER_NAME":"EARTH","APOAPSIS":"547.896","NORAD_CAT_ID":"46351","MEAN_ANOMALY":"271.8344","GP_ID":"227624199","RCS_SIZE":"LARGE","TIME_SYSTEM":"UTC","PERIOD":"95.592","TLE_LINE2":"2 46351  53.0544 249.4490 0001012  88.2761 271.8344 15.06405996138983","OBJECT_ID":"2020-062AC","BSTAR":"0.00033883000000","RA_OF_ASC_NODE":"249.4490","REV_AT_EPOCH":"13898","COUNTRY_CODE":"US","ELEMENT_SET_NO":"999","OBJECT_NAME":"STARLINK-1646","MEAN_MOTION_DDOT":"0.0000000000000","LAUNCH_DATE":"2020-09-03","CLASSIFICATION_TYPE":"U","PERIAPSIS":"546.494","ECCENTRICITY":"0.00010120","REF_FRAME":"TEME","OBJECT_TYPE":"PAYLOAD","MEAN_MOTION_DOT":"0.00004770","INCLINATION":"53.0544","EPHEMERIS_TYPE":"0","DECAY_DATE":null,"SITE":"AFETR","ARG_OF_PERICENTER":"88.2761","MEAN_ELEMENT_THEORY":"SGP4","MEAN_MOTION":"15.06405996","EPOCH":"2023-03-06T20:35:51.704448","TLE_LINE1":"1 46351U 20062AC  23065.85823732  .00004770  00000-0  33883-3 0  9999"},{"SITE":"AFETR","DECAY_DATE":null,"ARG_OF_PERICENTER":"75.8237","MEAN_MOTION":"15.06397983","EPOCH":"2023-03-06T18:35:09.103488","MEAN_ELEMENT_THEORY":"SGP4","TLE_LINE1":"1 46352U 20062AD  23065.77441092  .00002416  00000-0  18104-3 0  9990","ECCENTRICITY":"0.00010910","REF_FRAME":"TEME","OBJECT_TYPE":"PAYLOAD","INCLINATION":"53.0511","MEAN_MOTION_DOT":"0.00002416","EPHEMERIS_TYPE":"0","PERIAPSIS":"546.464","MEAN_MOTION_DDOT":"0.0000000000000","LAUNCH_DATE":"2020-09-03","CLASSIFICATION_TYPE":"U","ELEMENT_SET_NO":"999","OBJECT_NAME":"STARLINK-1653","RA_OF_ASC_NODE":"249.8418","COUNTRY_CODE":"US","REV_AT_EPOCH":"13896","RCS_SIZE":"LARGE","TIME_SYSTEM":"UTC","PERIOD":"95.592","TLE_LINE2":"2 46352  53.0511 249.8418 0001091  75.8237 284.2873 15.06397983138968","OBJECT_ID":"2020-062AD","BSTAR":"0.00018104000000","SEMIMAJOR_AXIS":"6925.355","FILE":"3853141","CENTER_NAME":"EARTH","APOAPSIS":"547.975","NORAD_CAT_ID":"46352","MEAN_ANOMALY":"284.2873","GP_ID":"227623449"},{"PERIAPSIS":"546.748","CLASSIFICATION_TYPE":"U","LAUNCH_DATE":"2020-09-03","MEAN_MOTION_DDOT":"0.0000000000000","TLE_LINE1":"1 46353U 20062AE  23065.83891427  .00003943  00000-0  28341-3 0  9999","EPOCH":"2023-03-06T20:08:02.192928","MEAN_MOTION":"15.06400341","MEAN_ELEMENT_THEORY":"SGP4","ARG_OF_PERICENTER":"75.2364","SITE":"AFETR","DECAY_DATE":null,"EPHEMERIS_TYPE":"0","INCLINATION":"53.0521","MEAN_MOTION_DOT":"0.00003943","OBJECT_TYPE":"PAYLOAD","ECCENTRICITY":"0.00006710","REF_FRAME":"TEME","BSTAR":"0.00028341000000","OBJECT_ID":"2020-062AE","TLE_LINE2":"2 46353  53.0521 269.5532 0000671  75.2364 284.8699 15.06400341138688","PERIOD":"95.592","TIME_SYSTEM":"UTC","RCS_SIZE":"LARGE","GP_ID":"227623699","MEAN_ANOMALY":"284.8699","NORAD_CAT_ID":"46353","APOAPSIS":"547.677","CENTER_NAME":"EARTH","FILE":"3853141","SEMIMAJOR_AXIS":"6925.348","OBJECT_NAME":"STARLINK-1656","ELEMENT_SET_NO":"999","COUNTRY_CODE":"US","REV_AT_EPOCH":"13868","RA_OF_ASC_NODE":"269.5532"},{"GP_ID":"227623950","MEAN_ANOMALY":"289.9060","NORAD_CAT_ID":"46354","APOAPSIS":"547.946","CENTER_NAME":"EARTH","FILE":"3853141","SEMIMAJOR_AXIS":"6925.351","BSTAR":"0.00104570000000","OBJECT_ID":"2020-062AF","TLE_LINE2":"2 46354  53.0517 269.6058 0001054  70.2043 289.9060 15.06399250138687","PERIOD":"95.592","TIME_SYSTEM":"UTC","RCS_SIZE":"LARGE","REV_AT_EPOCH":"13868","COUNTRY_CODE":"US","RA_OF_ASC_NODE":"269.6058","OBJECT_NAME":"STARLINK-1657","ELEMENT_SET_NO":"999","LAUNCH_DATE":"2020-09-03","CLASSIFICATION_TYPE":"U","MEAN_MOTION_DDOT":"0.0000000000000","PERIAPSIS":"546.486","EPHEMERIS_TYPE":"0","MEAN_MOTION_DOT":"0.00015328","INCLINATION":"53.0517","OBJECT_TYPE":"PAYLOAD","REF_FRAME":"TEME","ECCENTRICITY":"0.00010540","TLE_LINE1":"1 46354U 20062AF  23065.82785691  .00015328  00000-0  10457-2 0  9992","MEAN_MOTION":"15.06399250","EPOCH":"2023-03-06T19:52:06.837024","MEAN_ELEMENT_THEORY":"SGP4","ARG_OF_PERICENTER":"70.2043","DECAY_DATE":null,"SITE":"AFETR"},{"PERIAPSIS":"546.366","LAUNCH_DATE":"2020-09-03","CLASSIFICATION_TYPE":"U","MEAN_MOTION_DDOT":"0.0000000000000","TLE_LINE1":"1 46355U 20062AG  23065.86839912  .00004858  00000-0  34472-3 0  9993","MEAN_MOTION":"15.06405045","MEAN_ELEMENT_THEORY":"SGP4","EPOCH":"2023-03-06T20:50:29.683968","ARG_OF_PERICENTER":"81.4745","SITE":"AFETR","DECAY_DATE":null,"EPHEMERIS_TYPE":"0","INCLINATION":"53.0512","MEAN_MOTION_DOT":"0.00004858","OBJECT_TYPE":"PAYLOAD","ECCENTRICITY":"0.00012010","REF_FRAME":"TEME","BSTAR":"0.00034472000000","OBJECT_ID":"2020-062AG","TLE_LINE2":"2 46355  53.0512 269.4213 0001201  81.4745 278.6380 15.06405045138872","PERIOD":"95.592","TIME_SYSTEM":"UTC","RCS_SIZE":"LARGE","GP_ID":"227598985","MEAN_ANOMALY":"278.6380","NORAD_CAT_ID":"46355","CENTER_NAME":"EARTH","APOAPSIS":"548.030","FILE":"3852906","SEMIMAJOR_AXIS":"6925.333","OBJECT_NAME":"STARLINK-1661","ELEMENT_SET_NO":"999","COUNTRY_CODE":"US","REV_AT_EPOCH":"13887","RA_OF_ASC_NODE":"269.4213"}];
